[{"OBJECT_NAME":"STARLINK-32171","OBJECT_ID":"2024-136D","EPOCH":"2026-03-09T08:03:21.976992","MEAN_MOTION":15.30184303,"ECCENTRICITY":0.00011037,"INCLINATION":53.1603,"RA_OF_ASC_NODE":77.0876,"ARG_OF_PERICENTER":99.5325,"MEAN_ANOMALY":260.5801,"EPHEMERIS_TYPE":0,"CLASSIFICATION_TYPE":"U","NORAD_CAT_ID":60332,"ELEMENT_SET_NO":999,"REV_AT_EPOCH":8961,"BSTAR":8.2380095e-5,"MEAN_MOTION_DOT":2.08e-5,"MEAN_MOTION_DDOT":0},{"OBJECT_NAME":"TOMORROW-S4","OBJECT_ID":"2024-247K","EPOCH":"2026-03-09T12:47:35.836224","MEAN_MOTION":15.27717249,"ECCENTRICITY":0.00044343,"INCLINATION":44.9818,"RA_OF_ASC_NODE":117.9996,"ARG_OF_PERICENTER":210.4078,"MEAN_ANOMALY":149.6548,"EPHEMERIS_TYPE":0,"CLASSIFICATION_TYPE":"U","NORAD_CAT_ID":62386,"ELEMENT_SET_NO":999,"REV_AT_EPOCH":6770,"BSTAR":0.00046927249,"MEAN_MOTION_DOT":0.00012677,"MEAN_MOTION_DDOT":0}]
